[{"OBJECT_NAME":"STARLINK-5448","OBJECT_ID":"2022-175N","EPOCH":"2026-03-09T06:29:17.314656","MEAN_MOTION":15.08870714,"ECCENTRICITY":0.00017997,"INCLINATION":53.2204,"RA_OF_ASC_NODE":31.1864,"ARG_OF_PERICENTER":93.7584,"MEAN_ANOMALY":266.3614,"EPHEMERIS_TYPE":0,"CLASSIFICATION_TYPE":"U","NORAD_CAT_ID":54770,"ELEMENT_SET_NO":999,"REV_AT_EPOCH":18006,"BSTAR":-0.00060855363,"MEAN_MOTION_DOT":-9.968e-5,"MEAN_MOTION_DDOT":0},{"OBJECT_NAME":"FENGYUN 1C DEB","OBJECT_ID":"1999-025AVN","EPOCH":"2026-03-09T06:31:52.647168","MEAN_MOTION":14.79109319,"ECCENTRICITY":0.02015641,"INCLINATION":98.3743,"RA_OF_ASC_NODE":183.7423,"ARG_OF_PERICENTER":262.0182,"MEAN_ANOMALY":126.1893,"EPHEMERIS_TYPE":0,"CLASSIFICATION_TYPE":"U","NORAD_CAT_ID":30828,"ELEMENT_SET_NO":999,"REV_AT_EPOCH":99935,"BSTAR":0.0012364743,"MEAN_MOTION_DOT":0.00012875,"MEAN_MOTION_DDOT":0}]
